IRIDIUM 116             
1 43072U 17083C   25039.60272109  .00000505  00000+0  17332-3 0  9999
2 43072  86.4030 168.3147 0002078  90.6465 269.4969 14.34218604373423
IRIDIUM 130             
1 43073U 17083D   25039.85008187  .00000338  00000+0  11349-3 0  9996
2 43073  86.4041 168.4385 0002248  94.8613 265.2839 14.34217279373406
IRIDIUM 151             
1 43074U 17083E   25039.82471263  .00000430  00000+0  14658-3 0  9992
2 43074  86.4031 168.2685 0001965  90.7659 269.3762 14.34217760373424
IRIDIUM 134             
1 43075U 17083F   25039.58369498  .00000253  00000+0  83170-4 0  9991
2 43075  86.4036 168.3705 0002318  94.6419 265.5042 14.34217730373352
IRIDIUM 137             
1 43076U 17083G   25039.59637947  .00000190  00000+0  60741-4 0  9999
2 43076  86.4034 168.4475 0002095  81.3663 278.7770 14.34218501373421
IRIDIUM 141             
1 43077U 17083H   25039.59003616  .00000278  00000+0  92249-4 0  9995
2 43077  86.4030 168.3093 0001910 107.8503 252.2901 14.34217781373427
IRIDIUM 153             
1 43078U 17083J   25039.54221081  .00000653  00000+0  22599-3 0  9996
2 43078  86.4011 136.8550 0001921 113.2672 246.8726 14.34221857374520
IRIDIUM 131             
1 43079U 17083K   25039.43781462 -.00000020  00000+0 -14174-4 0  9990
2 43079  86.4038 168.5259 0001782  98.5655 261.5743 14.34217259373331
